{
  "norad_id": 28058,
  "name": "CHUANGXIN 1 (CX-1)",
  "history": [
    {
      "epoch": "2026-03-28T16:53:11.619744Z",
      "apogee_km": 740.1093322752295,
      "perigee_km": 720.7237381004888,
      "latitude_deg": 3.873233281517242e-05,
      "longitude_deg": -93.26176363740755,
      "height_km": 729.8793828432744,
      "semi_major_axis_km": 7108.553535187859,
      "eccentricity": 0.00136354,
      "inclination_deg": 98.5159,
      "raan_deg": 346.1569,
      "arg_perigee_deg": 69.0498,
      "mean_anomaly_deg": 291.2153,
      "mean_motion_rev_day": 14.48541374
    },
    {
      "epoch": "2026-03-29T04:29:28.234176Z",
      "apogee_km": 740.0996002814745,
      "perigee_km": 720.7287982634571,
      "latitude_deg": -7.690585317143892e-07,
      "longitude_deg": 92.67983081691752,
      "height_km": 729.6700814800483,
      "semi_major_axis_km": 7108.551199272466,
      "eccentricity": 0.0013625,
      "inclination_deg": 98.5159,
      "raan_deg": 346.6443,
      "arg_perigee_deg": 67.7135,
      "mean_anomaly_deg": 292.5501,
      "mean_motion_rev_day": 14.48542088
    },
    {
      "epoch": "2026-03-30T03:42:01.438848Z",
      "apogee_km": 740.0809803196935,
      "perigee_km": 720.7428838049118,
      "latitude_deg": -1.3263978027751766e-05,
      "longitude_deg": 104.56321152843427,
      "height_km": 729.2595275107794,
      "semi_major_axis_km": 7108.548932062303,
      "eccentricity": 0.0013602,
      "inclination_deg": 98.5158,
      "raan_deg": 347.6192,
      "arg_perigee_deg": 65.027,
      "mean_anomaly_deg": 295.2334,
      "mean_motion_rev_day": 14.48542781
    },
    {
      "epoch": "2026-03-30T05:21:29.524032Z",
      "apogee_km": 740.077615382178,
      "perigee_km": 720.7460589904267,
      "latitude_deg": 6.835096407425514e-05,
      "longitude_deg": 79.69769436751113,
      "height_km": 729.2299548878988,
      "semi_major_axis_km": 7108.548837186302,
      "eccentricity": 0.00135974,
      "inclination_deg": 98.5157,
      "raan_deg": 347.6888,
      "arg_perigee_deg": 64.8247,
      "mean_anomaly_deg": 295.4355,
      "mean_motion_rev_day": 14.4854281
    },
    {
      "epoch": "2026-03-30T13:38:49.936992Z",
      "apogee_km": 740.0728365445302,
      "perigee_km": 720.7489599379514,
      "latitude_deg": -1.819981386762937e-05,
      "longitude_deg": -44.629563625063675,
      "height_km": 729.0822578107039,
      "semi_major_axis_km": 7108.547898241241,
      "eccentricity": 0.0013592,
      "inclination_deg": 98.5157,
      "raan_deg": 348.037,
      "arg_perigee_deg": 63.8462,
      "mean_anomaly_deg": 296.4127,
      "mean_motion_rev_day": 14.48543097
    },
    {
      "epoch": "2026-03-30T15:18:18.019584Z",
      "apogee_km": 740.0720133174618,
      "perigee_km": 720.7494167475061,
      "latitude_deg": 2.3797769942557335e-05,
      "longitude_deg": -69.495064056225,
      "height_km": 729.053234194586,
      "semi_major_axis_km": 7108.547715032483,
      "eccentricity": 0.00135911,
      "inclination_deg": 98.5157,
      "raan_deg": 348.1066,
      "arg_perigee_deg": 63.6533,
      "mean_anomaly_deg": 296.6054,
      "mean_motion_rev_day": 14.48543153
    },
    {
      "epoch": "2026-03-31T16:10:19.242912Z",
      "apogee_km": 740.0528996820149,
      "perigee_km": 720.7631519000279,
      "latitude_deg": -6.349017718527401e-05,
      "longitude_deg": -82.47689855947363,
      "height_km": 728.6280077742482,
      "semi_major_axis_km": 7108.5450257910215,
      "eccentricity": 0.0013568,
      "inclination_deg": 98.5156,
      "raan_deg": 349.1511,
      "arg_perigee_deg": 60.7597,
      "mean_anomaly_deg": 299.495,
      "mean_motion_rev_day": 14.48543975
    },
    {
      "epoch": "2026-04-01T07:05:31.949088Z",
      "apogee_km": 740.0379586334066,
      "perigee_km": 720.7780667759844,
      "latitude_deg": -7.363440094880293e-06,
      "longitude_deg": 53.73410082085628,
      "height_km": 728.3856831585888,
      "semi_major_axis_km": 7108.545012704695,
      "eccentricity": 0.0013547,
      "inclination_deg": 98.5156,
      "raan_deg": 349.7778,
      "arg_perigee_deg": 59.0387,
      "mean_anomaly_deg": 301.2135,
      "mean_motion_rev_day": 14.48543979
    },
    {
      "epoch": "2026-04-02T11:16:29.200224Z",
      "apogee_km": 740.0030547494134,
      "perigee_km": 720.8024623491865,
      "latitude_deg": 4.275250513645857e-06,
      "longitude_deg": -8.978163128812021,
      "height_km": 727.9326733655053,
      "semi_major_axis_km": 7108.539758549299,
      "eccentricity": 0.00135053,
      "inclination_deg": 98.5154,
      "raan_deg": 350.9615,
      "arg_perigee_deg": 55.7486,
      "mean_anomaly_deg": 304.4984,
      "mean_motion_rev_day": 14.48545585
    },
    {
      "epoch": "2026-04-02T22:52:45.664320Z",
      "apogee_km": 739.988891283253,
      "perigee_km": 720.8121895604563,
      "latitude_deg": 5.181161024412059e-05,
      "longitude_deg": 176.964046836255,
      "height_km": 727.7526524767657,
      "semi_major_axis_km": 7108.537540421854,
      "eccentricity": 0.00134885,
      "inclination_deg": 98.5154,
      "raan_deg": 351.4489,
      "arg_perigee_deg": 54.3997,
      "mean_anomaly_deg": 305.8451,
      "mean_motion_rev_day": 14.48546263
    },
    {
      "epoch": "2026-04-03T17:06:54.416448Z",
      "apogee_km": 739.9686056110213,
      "perigee_km": 720.8267434394593,
      "latitude_deg": -3.6357969903718644e-07,
      "longitude_deg": -96.55542885023961,
      "height_km": 727.4765202745184,
      "semi_major_axis_km": 7108.53467452524,
      "eccentricity": 0.0013464,
      "inclination_deg": 98.5152,
      "raan_deg": 352.2148,
      "arg_perigee_deg": 52.2777,
      "mean_anomaly_deg": 307.9634,
      "mean_motion_rev_day": 14.48547139
    },
    {
      "epoch": "2026-04-04T06:22:38.910432Z",
      "apogee_km": 739.9528475329589,
      "perigee_km": 720.8397075975727,
      "latitude_deg": -3.0576329822571666e-05,
      "longitude_deg": 64.52161802652002,
      "height_km": 727.2832395927793,
      "semi_major_axis_km": 7108.533277565266,
      "eccentricity": 0.00134438,
      "inclination_deg": 98.5151,
      "raan_deg": 352.7719,
      "arg_perigee_deg": 50.7352,
      "mean_anomaly_deg": 309.5031,
      "mean_motion_rev_day": 14.48547566
    },
    {
      "epoch": "2026-04-05T13:52:32.064960Z",
      "apogee_km": 739.9124712742178,
      "perigee_km": 720.8739791132894,
      "latitude_deg": 1.0541862801162072e-05,
      "longitude_deg": -47.920647969245906,
      "height_km": 726.8458026328228,
      "semi_major_axis_km": 7108.530225193753,
      "eccentricity": 0.00133913,
      "inclination_deg": 98.5148,
      "raan_deg": 354.0947,
      "arg_perigee_deg": 47.0629,
      "mean_anomaly_deg": 313.1685,
      "mean_motion_rev_day": 14.48548499
    },
    {
      "epoch": "2026-04-05T15:32:00.120768Z",
      "apogee_km": 739.9091754622932,
      "perigee_km": 720.8767972767873,
      "latitude_deg": -8.257275974549715e-05,
      "longitude_deg": -72.78591657780103,
      "height_km": 726.8231845740661,
      "semi_major_axis_km": 7108.52998636954,
      "eccentricity": 0.0013387,
      "inclination_deg": 98.5148,
      "raan_deg": 354.1644,
      "arg_perigee_deg": 46.8604,
      "mean_anomaly_deg": 313.3705,
      "mean_motion_rev_day": 14.48548572
    },
    {
      "epoch": "2026-04-06T04:47:44.564640Z",
      "apogee_km": 739.8891627825205,
      "perigee_km": 720.8946049225569,
      "latitude_deg": 2.6685230220163808e-05,
      "longitude_deg": 88.29121804800789,
      "height_km": 726.6499762640206,
      "semi_major_axis_km": 7108.5288838525385,
      "eccentricity": 0.00133604,
      "inclination_deg": 98.5147,
      "raan_deg": 354.7214,
      "arg_perigee_deg": 45.3047,
      "mean_anomaly_deg": 314.9232,
      "mean_motion_rev_day": 14.48548909
    },
    {
      "epoch": "2026-04-07T10:38:09.519072Z",
      "apogee_km": 739.8477835253243,
      "perigee_km": 720.9301477140589,
      "latitude_deg": -7.85554126127892e-06,
      "longitude_deg": 0.7149469642108724,
      "height_km": 726.27949809788,
      "semi_major_axis_km": 7108.525965619691,
      "eccentricity": 0.00133063,
      "inclination_deg": 98.5145,
      "raan_deg": 355.9746,
      "arg_perigee_deg": 41.8209,
      "mean_anomaly_deg": 318.3998,
      "mean_motion_rev_day": 14.48549801
    },
    {
      "epoch": "2026-04-07T15:36:33.682176Z",
      "apogee_km": 739.840202946727,
      "perigee_km": 720.93721138623,
      "latitude_deg": 4.293633199513083e-05,
      "longitude_deg": -73.88119020966039,
      "height_km": 726.2206352554908,
      "semi_major_axis_km": 7108.525707166478,
      "eccentricity": 0.0013296,
      "inclination_deg": 98.5144,
      "raan_deg": 356.1834,
      "arg_perigee_deg": 41.2326,
      "mean_anomaly_deg": 318.9869,
      "mean_motion_rev_day": 14.4854988
    },
    {
      "epoch": "2026-04-08T14:49:06.373632Z",
      "apogee_km": 739.8077359448798,
      "perigee_km": 720.9663086827759,
      "latitude_deg": -3.098677848584135e-05,
      "longitude_deg": -61.995759619721014,
      "height_km": 725.9537211590479,
      "semi_major_axis_km": 7108.524022313828,
      "eccentricity": 0.00132527,
      "inclination_deg": 98.5143,
      "raan_deg": 357.1582,
      "arg_perigee_deg": 38.4828,
      "mean_anomaly_deg": 321.7307,
      "mean_motion_rev_day": 14.48550395
    },
    {
      "epoch": "2026-04-09T07:23:46.841856Z",
      "apogee_km": 739.7816004504602,
      "perigee_km": 720.9883743610362,
      "latitude_deg": -6.016380868043888e-05,
      "longitude_deg": 49.35099456435482,
      "height_km": 725.775105618057,
      "semi_major_axis_km": 7108.5219874057475,
      "eccentricity": 0.00132188,
      "inclination_deg": 98.5143,
      "raan_deg": 357.8544,
      "arg_perigee_deg": 36.5153,
      "mean_anomaly_deg": 323.6938,
      "mean_motion_rev_day": 14.48551017
    },
    {
      "epoch": "2026-04-10T11:34:43.616064Z",
      "apogee_km": 739.7387933669042,
      "perigee_km": 721.0277463126322,
      "latitude_deg": -4.3510551817537724e-05,
      "longitude_deg": -13.359481850965693,
      "height_km": 725.4962637668416,
      "semi_major_axis_km": 7108.520269839768,
      "eccentricity": 0.0013161,
      "inclination_deg": 98.5142,
      "raan_deg": 359.0379,
      "arg_perigee_deg": 33.1728,
      "mean_anomaly_deg": 327.0287,
      "mean_motion_rev_day": 14.48551542
    },
    {
      "epoch": "2026-04-11T10:47:16.220256Z",
      "apogee_km": 739.7036700617537,
      "perigee_km": 721.0608674275445,
      "latitude_deg": -3.0786061009829356e-05,
      "longitude_deg": -1.4737985702377203,
      "height_km": 725.290111352185,
      "semi_major_axis_km": 7108.519268744649,
      "eccentricity": 0.0013113,
      "inclination_deg": 98.5142,
      "raan_deg": 0.0126,
      "arg_perigee_deg": 30.431,
      "mean_anomaly_deg": 329.7641,
      "mean_motion_rev_day": 14.48551848
    },
    {
      "epoch": "2026-04-13T04:13:57.243072Z",
      "apogee_km": 739.6367615365216,
      "perigee_km": 721.1233397298529,
      "latitude_deg": -3.2899854811238917e-06,
      "longitude_deg": 96.89369315130887,
      "height_km": 724.9707872843621,
      "semi_major_axis_km": 7108.517050633187,
      "eccentricity": 0.0013022,
      "inclination_deg": 98.5141,
      "raan_deg": 1.7531,
      "arg_perigee_deg": 25.4742,
      "mean_anomaly_deg": 334.709,
      "mean_motion_rev_day": 14.48552526
    }
  ]
}